GLOBALSTAR M094         
1 39074U 13005C   25284.97317493 -.00000079  00000+0  13965-3 0  9999
2 39074  51.9948 186.5376 0000761  88.8192 271.2762 12.62264194587124
GLOBALSTAR M096         
1 39075U 13005D   25284.59046485 -.00000081  00000+0  12534-3 0  9992
2 39075  52.0063 236.3080 0000660  85.0070 275.0872 12.62267481585992
GLOBALSTAR M078         
1 39076U 13005E   25284.80206054 -.00000026  00000+0  43183-3 0  9990
2 39076  51.9885 320.0207 0001272  82.9321 277.1690 12.62261305584641
GLOBALSTAR M095         
1 39077U 13005F   25284.82806017 -.00000080  00000+0  13503-3 0  9991
2 39077  52.0089 317.1916 0000844 107.3472 252.7487 12.62260686584506
GLOBALSTAR M087         
1 52888U 22064A   25284.92055057 -.00000115  00000+0 -64609-4 0  9996
2 52888  51.9976  98.2871 0001021 102.8202 257.2779 12.62289293159787
